EUTELSAT 21B            
1 38992U 12062B   25279.49880873  .00000133  00000+0  00000+0 0  9999
2 38992   0.0735  14.7382 0002904 188.7865  13.0649  1.00274246 47281
EUTELSAT 70B            
1 39020U 12069A   25279.57842392 -.00000041  00000+0  00000+0 0  9991
2 39020   0.0660   2.7490 0004120 194.6032  96.8749  1.00271452 46962
EUTELSAT 117 WEST A     
1 39122U 13012A   25279.54283559 -.00000011  00000+0  00000+0 0  9991
2 39122   0.0491  57.0063 0002711 139.7523 257.3262  1.00271550 45888
EUTELSAT 7B             
1 39163U 13022A   25279.56739205  .00000051  00000+0  00000+0 0  9996
2 39163   0.0706   0.7315 0001274 313.5934 272.4358  1.00272767 45412
EUTELSAT 3B             
1 39773U 14030A   25279.56661204  .00000022  00000+0  00000+0 0  9994
2 39773   0.0659   5.2787 0004526 186.0401  31.2444  1.00271263 41529
EUTELSAT 115 WEST B     
1 40425U 15010B   25279.54318226 -.00000023  00000+0  00000+0 0  9992
2 40425   0.0246  44.3091 0000370  47.7359   4.0646  1.00270984 38850
